start=new Date('2022-03-24T00:00:00.000Z').valueOf();
sats=[{"ELEMENT_SET_NO":"999","OBJECT_TYPE":"PAYLOAD","TLE_LINE1":"1 47648U 21012AE  22082.67475712  .00001317  00000-0  10732-3 0  9996","INCLINATION":"53.0566","CENTER_NAME":"EARTH","RA_OF_ASC_NODE":"67.5300","ECCENTRICITY":"0.00019610","TIME_SYSTEM":"UTC","REF_FRAME":"TEME","OBJECT_NAME":"STARLINK-2031","MEAN_MOTION_DDOT":"0.0000000000000","PERIAPSIS":"545.894","APOAPSIS":"548.610","SEMIMAJOR_AXIS":"6925.387","BSTAR":"0.00010732000000","CLASSIFICATION_TYPE":"U","EPOCH":"2022-03-23T16:11:39.015168","DECAY_DATE":null,"MEAN_MOTION_DOT":"0.00001317","OBJECT_ID":"2021-012AE","PERIOD":"95.593","TLE_LINE2":"2 47648  53.0566  67.5300 0001961  53.1604 306.9565 15.06387433 62173","EPHEMERIS_TYPE":"0","REV_AT_EPOCH":"6217","GP_ID":"199536834","MEAN_ANOMALY":"306.9565","SITE":"AFETR","FILE":"3371636","MEAN_MOTION":"15.06387433","ARG_OF_PERICENTER":"53.1604","MEAN_ELEMENT_THEORY":"SGP4","NORAD_CAT_ID":"47648","LAUNCH_DATE":"2021-02-16","RCS_SIZE":"MEDIUM","COUNTRY_CODE":"US"},{"RA_OF_ASC_NODE":"67.5082","TIME_SYSTEM":"UTC","ECCENTRICITY":"0.00019420","OBJECT_TYPE":"PAYLOAD","ELEMENT_SET_NO":"999","CENTER_NAME":"EARTH","INCLINATION":"53.0549","TLE_LINE1":"1 47649U 21012AF  22082.67843792  .00001755  00000-0  13667-3 0  9990","CLASSIFICATION_TYPE":"U","EPOCH":"2022-03-23T16:16:57.036288","BSTAR":"0.00013667000000","OBJECT_ID":"2021-012AF","PERIOD":"95.592","MEAN_MOTION_DOT":"0.00001755","DECAY_DATE":null,"MEAN_MOTION_DDOT":"0.0000000000000","REF_FRAME":"TEME","OBJECT_NAME":"STARLINK-2032","SEMIMAJOR_AXIS":"6925.340","APOAPSIS":"548.550","PERIAPSIS":"545.861","GP_ID":"199538086","REV_AT_EPOCH":"6217","MEAN_ANOMALY":"311.7617","SITE":"AFETR","EPHEMERIS_TYPE":"0","TLE_LINE2":"2 47649  53.0549  67.5082 0001942  48.3538 311.7617 15.06402638 62170","LAUNCH_DATE":"2021-02-16","MEAN_ELEMENT_THEORY":"SGP4","NORAD_CAT_ID":"47649","COUNTRY_CODE":"US","RCS_SIZE":"LARGE","ARG_OF_PERICENTER":"48.3538","FILE":"3371636","MEAN_MOTION":"15.06402638"},{"EPHEMERIS_TYPE":"0","TLE_LINE2":"2 47650  53.0551  66.9789 0001750  54.9720 305.1433 15.06396878 62176","REV_AT_EPOCH":"6217","GP_ID":"199537836","MEAN_ANOMALY":"305.1433","SITE":"AFETR","FILE":"3371636","MEAN_MOTION":"15.06396878","ARG_OF_PERICENTER":"54.9720","MEAN_ELEMENT_THEORY":"SGP4","NORAD_CAT_ID":"47650","LAUNCH_DATE":"2021-02-16","RCS_SIZE":"LARGE","COUNTRY_CODE":"US","ELEMENT_SET_NO":"999","OBJECT_TYPE":"PAYLOAD","TLE_LINE1":"1 47650U 21012AG  22082.79639127  .00000337  00000-0  41533-4 0  9999","CENTER_NAME":"EARTH","INCLINATION":"53.0551","RA_OF_ASC_NODE":"66.9789","ECCENTRICITY":"0.00017500","TIME_SYSTEM":"UTC","REF_FRAME":"TEME","OBJECT_NAME":"STARLINK-2033","MEAN_MOTION_DDOT":"0.0000000000000","APOAPSIS":"548.435","PERIAPSIS":"546.011","SEMIMAJOR_AXIS":"6925.358","BSTAR":"0.00004153300000","CLASSIFICATION_TYPE":"U","EPOCH":"2022-03-23T19:06:48.205728","DECAY_DATE":null,"MEAN_MOTION_DOT":"0.00000337","OBJECT_ID":"2021-012AG","PERIOD":"95.592"},{"TIME_SYSTEM":"UTC","ECCENTRICITY":"0.00015940","RA_OF_ASC_NODE":"87.4252","CENTER_NAME":"EARTH","INCLINATION":"53.0550","TLE_LINE1":"1 47651U 21012AH  22082.69776573 -.00000515  00000-0 -15641-4 0  9997","OBJECT_TYPE":"PAYLOAD","ELEMENT_SET_NO":"999","PERIOD":"95.592","OBJECT_ID":"2021-012AH","DECAY_DATE":null,"MEAN_MOTION_DOT":"-0.00000515","EPOCH":"2022-03-23T16:44:46.959072","CLASSIFICATION_TYPE":"U","BSTAR":"-0.00001564100000","SEMIMAJOR_AXIS":"6925.339","PERIAPSIS":"546.101","APOAPSIS":"548.308","MEAN_MOTION_DDOT":"0.0000000000000","OBJECT_NAME":"STARLINK-2035","REF_FRAME":"TEME","SITE":"AFETR","MEAN_ANOMALY":"302.5493","GP_ID":"199537085","REV_AT_EPOCH":"6189","EPHEMERIS_TYPE":"0","TLE_LINE2":"2 47651  53.0550  87.4252 0001594  57.5650 302.5493 15.06402961 61892","COUNTRY_CODE":"US","RCS_SIZE":"LARGE","LAUNCH_DATE":"2021-02-16","NORAD_CAT_ID":"47651","MEAN_ELEMENT_THEORY":"SGP4","ARG_OF_PERICENTER":"57.5650","MEAN_MOTION":"15.06402961","FILE":"3371636"},{"ELEMENT_SET_NO":"999","OBJECT_TYPE":"PAYLOAD","TLE_LINE1":"1 47652U 21012AJ  22082.39278119  .00000529  00000-0  54386-4 0  9990","CENTER_NAME":"EARTH","INCLINATION":"53.0554","RA_OF_ASC_NODE":"88.7951","ECCENTRICITY":"0.00018930","TIME_SYSTEM":"UTC","REF_FRAME":"TEME","OBJECT_NAME":"STARLINK-2036","MEAN_MOTION_DDOT":"0.0000000000000","APOAPSIS":"548.520","PERIAPSIS":"545.898","SEMIMAJOR_AXIS":"6925.344","BSTAR":"0.00005438600000","CLASSIFICATION_TYPE":"U","EPOCH":"2022-03-23T09:25:36.294816","MEAN_MOTION_DOT":"0.00000529","DECAY_DATE":null,"OBJECT_ID":"2021-012AJ","PERIOD":"95.592","EPHEMERIS_TYPE":"0","TLE_LINE2":"2 47652  53.0554  88.7951 0001893  50.6169 309.4987 15.06401371 61841","REV_AT_EPOCH":"6184","GP_ID":"199477040","MEAN_ANOMALY":"309.4987","SITE":"AFETR","FILE":"3371208","MEAN_MOTION":"15.06401371","ARG_OF_PERICENTER":"50.6169","MEAN_ELEMENT_THEORY":"SGP4","NORAD_CAT_ID":"47652","LAUNCH_DATE":"2021-02-16","RCS_SIZE":"LARGE","COUNTRY_CODE":"US"},{"ELEMENT_SET_NO":"999","OBJECT_TYPE":"PAYLOAD","TLE_LINE1":"1 47653U 21012AK  22082.65264023 -.00001308  00000-0 -68926-4 0  9992","INCLINATION":"53.0552","CENTER_NAME":"EARTH","RA_OF_ASC_NODE":"67.6097","ECCENTRICITY":"0.00020140","TIME_SYSTEM":"UTC","OBJECT_NAME":"STARLINK-2037","REF_FRAME":"TEME","MEAN_MOTION_DDOT":"0.0000000000000","APOAPSIS":"548.624","PERIAPSIS":"545.835","SEMIMAJOR_AXIS":"6925.364","BSTAR":"-0.00006892600000","EPOCH":"2022-03-23T15:39:48.115872","CLASSIFICATION_TYPE":"U","DECAY_DATE":null,"MEAN_MOTION_DOT":"-0.00001308","PERIOD":"95.592","OBJECT_ID":"2021-012AK","EPHEMERIS_TYPE":"0","TLE_LINE2":"2 47653  53.0552  67.6097 0002014  44.8860 315.2292 15.06394808 62151","REV_AT_EPOCH":"6215","GP_ID":"199537586","SITE":"AFETR","MEAN_ANOMALY":"315.2292","MEAN_MOTION":"15.06394808","FILE":"3371636","ARG_OF_PERICENTER":"44.8860","NORAD_CAT_ID":"47653","MEAN_ELEMENT_THEORY":"SGP4","LAUNCH_DATE":"2021-02-16","RCS_SIZE":"LARGE","COUNTRY_CODE":"US"},{"FILE":"3371208","MEAN_MOTION":"15.06397999","ARG_OF_PERICENTER":"50.2363","MEAN_ELEMENT_THEORY":"SGP4","NORAD_CAT_ID":"47654","LAUNCH_DATE":"2021-02-16","RCS_SIZE":"LARGE","COUNTRY_CODE":"US","TLE_LINE2":"2 47654  53.0550  88.7648 0001953  50.2363 309.8798 15.06397999 61845","EPHEMERIS_TYPE":"0","REV_AT_EPOCH":"6184","GP_ID":"199478028","MEAN_ANOMALY":"309.8798","SITE":"AFETR","REF_FRAME":"TEME","OBJECT_NAME":"STARLINK-2038","MEAN_MOTION_DDOT":"0.0000000000000","PERIAPSIS":"545.867","APOAPSIS":"548.572","SEMIMAJOR_AXIS":"6925.355","BSTAR":"0.00005729400000","CLASSIFICATION_TYPE":"U","EPOCH":"2022-03-23T09:30:54.781632","DECAY_DATE":null,"MEAN_MOTION_DOT":"0.00000572","OBJECT_ID":"2021-012AL","PERIOD":"95.592","ELEMENT_SET_NO":"999","OBJECT_TYPE":"PAYLOAD","TLE_LINE1":"1 47654U 21012AL  22082.39646738  .00000572  00000-0  57294-4 0  9997","CENTER_NAME":"EARTH","INCLINATION":"53.0550","RA_OF_ASC_NODE":"88.7648","ECCENTRICITY":"0.00019530","TIME_SYSTEM":"UTC"},{"SITE":"AFETR","MEAN_ANOMALY":"304.5526","GP_ID":"199476291","REV_AT_EPOCH":"6184","EPHEMERIS_TYPE":"0","TLE_LINE2":"2 47655  53.0551  88.8041 0001592  55.5614 304.5526 15.06396407 61845","COUNTRY_CODE":"US","RCS_SIZE":"LARGE","LAUNCH_DATE":"2021-02-16","NORAD_CAT_ID":"47655","MEAN_ELEMENT_THEORY":"SGP4","ARG_OF_PERICENTER":"55.5614","MEAN_MOTION":"15.06396407","FILE":"3371208","TIME_SYSTEM":"UTC","ECCENTRICITY":"0.00015920","RA_OF_ASC_NODE":"88.8041","INCLINATION":"53.0551","CENTER_NAME":"EARTH","TLE_LINE1":"1 47655U 21012AM  22082.38909726 -.00001314  00000-0 -69301-4 0  9995","OBJECT_TYPE":"PAYLOAD","ELEMENT_SET_NO":"999","PERIOD":"95.592","OBJECT_ID":"2021-012AM","DECAY_DATE":null,"MEAN_MOTION_DOT":"-0.00001314","EPOCH":"2022-03-23T09:20:18.003264","CLASSIFICATION_TYPE":"U","BSTAR":"-0.00006930100000","SEMIMAJOR_AXIS":"6925.360","PERIAPSIS":"546.122","APOAPSIS":"548.327","MEAN_MOTION_DDOT":"0.0000000000000","OBJECT_NAME":"STARLINK-2039","REF_FRAME":"TEME"},{"MEAN_ELEMENT_THEORY":"SGP4","NORAD_CAT_ID":"47656","LAUNCH_DATE":"2021-02-16","RCS_SIZE":"LARGE","COUNTRY_CODE":"US","FILE":"3371208","MEAN_MOTION":"15.06399056","ARG_OF_PERICENTER":"51.6123","REV_AT_EPOCH":"6213","GP_ID":"199476540","MEAN_ANOMALY":"308.5052","SITE":"AFETR","EPHEMERIS_TYPE":"0","TLE_LINE2":"2 47656  53.0553  68.4298 0002071  51.6123 308.5052 15.06399056 62135","BSTAR":"-0.00001396800000","CLASSIFICATION_TYPE":"U","EPOCH":"2022-03-23T11:19:43.019616","DECAY_DATE":null,"MEAN_MOTION_DOT":"-0.00000490","OBJECT_ID":"2021-012AN","PERIOD":"95.592","REF_FRAME":"TEME","OBJECT_NAME":"STARLINK-2040","MEAN_MOTION_DDOT":"0.0000000000000","APOAPSIS":"548.651","PERIAPSIS":"545.782","SEMIMAJOR_AXIS":"6925.351","RA_OF_ASC_NODE":"68.4298","ECCENTRICITY":"0.00020710","TIME_SYSTEM":"UTC","ELEMENT_SET_NO":"999","OBJECT_TYPE":"PAYLOAD","TLE_LINE1":"1 47656U 21012AN  22082.47202569 -.00000490  00000-0 -13968-4 0  9999","CENTER_NAME":"EARTH","INCLINATION":"53.0553"},{"CLASSIFICATION_TYPE":"U","EPOCH":"2022-03-23T17:49:50.163744","BSTAR":"0.00005958000000","OBJECT_ID":"2021-012AP","PERIOD":"95.592","DECAY_DATE":null,"MEAN_MOTION_DOT":"0.00000606","MEAN_MOTION_DDOT":"0.0000000000000","REF_FRAME":"TEME","OBJECT_NAME":"STARLINK-2041","SEMIMAJOR_AXIS":"6925.352","APOAPSIS":"548.303","PERIAPSIS":"546.131","RA_OF_ASC_NODE":"87.2221","TIME_SYSTEM":"UTC","ECCENTRICITY":"0.00015680","OBJECT_TYPE":"PAYLOAD","ELEMENT_SET_NO":"999","CENTER_NAME":"EARTH","INCLINATION":"53.0549","TLE_LINE1":"1 47657U 21012AP  22082.74294171  .00000606  00000-0  59580-4 0  9997","LAUNCH_DATE":"2021-02-16","MEAN_ELEMENT_THEORY":"SGP4","NORAD_CAT_ID":"47657","COUNTRY_CODE":"US","RCS_SIZE":"LARGE","ARG_OF_PERICENTER":"65.2508","FILE":"3371636","MEAN_MOTION":"15.06398794","GP_ID":"199538087","REV_AT_EPOCH":"6189","MEAN_ANOMALY":"294.8644","SITE":"AFETR","TLE_LINE2":"2 47657  53.0549  87.2221 0001568  65.2508 294.8644 15.06398794 61898","EPHEMERIS_TYPE":"0"}];
